[{"OBJECT_NAME":"STARLINK-5754","OBJECT_ID":"2023-020L","EPOCH":"2026-03-09T22:00:01.999584","MEAN_MOTION":15.10899351,"ECCENTRICITY":0.00010973,"INCLINATION":43.0004,"RA_OF_ASC_NODE":3.1467,"ARG_OF_PERICENTER":303.9575,"MEAN_ANOMALY":160.1535,"EPHEMERIS_TYPE":0,"CLASSIFICATION_TYPE":"U","NORAD_CAT_ID":55579,"ELEMENT_SET_NO":999,"REV_AT_EPOCH":573,"BSTAR":0.072815742,"MEAN_MOTION_DOT":0.01342281,"MEAN_MOTION_DDOT":0},{"OBJECT_NAME":"TEVEL2-7","OBJECT_ID":"2025-052AE","EPOCH":"2026-03-09T15:52:01.887744","MEAN_MOTION":15.28414096,"ECCENTRICITY":0.00081048,"INCLINATION":97.4054,"RA_OF_ASC_NODE":324.3041,"ARG_OF_PERICENTER":124.683,"MEAN_ANOMALY":235.5175,"EPHEMERIS_TYPE":0,"CLASSIFICATION_TYPE":"U","NORAD_CAT_ID":63238,"ELEMENT_SET_NO":999,"REV_AT_EPOCH":5480,"BSTAR":0.00069668191,"MEAN_MOTION_DOT":0.00019244,"MEAN_MOTION_DDOT":0}]
